<?xml version="1.0" encoding="UTF-8"?>
<ndm xmlns:xsi="http://www.w3.org/2001/XMLSchema-instance" xsi:noNamespaceSchemaLocation="https://sanaregistry.org/r/ndmxml_unqualified/ndmxml-2.0.0-master-2.0.xsd">
<omm id="CCSDS_OMM_VERS" version="2.0">
<header><CREATION_DATE/><ORIGINATOR/></header><body><segment><metadata><OBJECT_NAME>KUIPER-00136</OBJECT_NAME><OBJECT_ID>2025-228R</OBJECT_ID><CENTER_NAME>EARTH</CENTER_NAME><REF_FRAME>TEME</REF_FRAME><TIME_SYSTEM>UTC</TIME_SYSTEM><MEAN_ELEMENT_THEORY>SGP4</MEAN_ELEMENT_THEORY></metadata><data><meanElements><EPOCH>2025-12-08T06:00:02.999808</EPOCH><MEAN_MOTION>15.33374406</MEAN_MOTION><ECCENTRICITY>.00056206</ECCENTRICITY><INCLINATION>51.8816</INCLINATION><RA_OF_ASC_NODE>42.1248</RA_OF_ASC_NODE><ARG_OF_PERICENTER>351.7825</ARG_OF_PERICENTER><MEAN_ANOMALY>165.5025</MEAN_ANOMALY></meanElements><tleParameters><EPHEMERIS_TYPE>0</EPHEMERIS_TYPE><CLASSIFICATION_TYPE>U</CLASSIFICATION_TYPE><NORAD_CAT_ID>65962</NORAD_CAT_ID><ELEMENT_SET_NO>999</ELEMENT_SET_NO><REV_AT_EPOCH>459</REV_AT_EPOCH><BSTAR>.32670394E-3</BSTAR><MEAN_MOTION_DOT>.10339E-3</MEAN_MOTION_DOT><MEAN_MOTION_DDOT>0</MEAN_MOTION_DDOT></tleParameters></data></segment></body></omm>
<omm id="CCSDS_OMM_VERS" version="2.0">
<header><CREATION_DATE/><ORIGINATOR/></header><body><segment><metadata><OBJECT_NAME>KUIPER-00137</OBJECT_NAME><OBJECT_ID>2025-228S</OBJECT_ID><CENTER_NAME>EARTH</CENTER_NAME><REF_FRAME>TEME</REF_FRAME><TIME_SYSTEM>UTC</TIME_SYSTEM><MEAN_ELEMENT_THEORY>SGP4</MEAN_ELEMENT_THEORY></metadata><data><meanElements><EPOCH>2025-12-07T10:50:29.055552</EPOCH><MEAN_MOTION>15.35622257</MEAN_MOTION><ECCENTRICITY>.00064172</ECCENTRICITY><INCLINATION>51.8819</INCLINATION><RA_OF_ASC_NODE>46.1163</RA_OF_ASC_NODE><ARG_OF_PERICENTER>8.8765</ARG_OF_PERICENTER><MEAN_ANOMALY>351.2333</MEAN_ANOMALY></meanElements><tleParameters><EPHEMERIS_TYPE>0</EPHEMERIS_TYPE><CLASSIFICATION_TYPE>U</CLASSIFICATION_TYPE><NORAD_CAT_ID>65963</NORAD_CAT_ID><ELEMENT_SET_NO>999</ELEMENT_SET_NO><REV_AT_EPOCH>960</REV_AT_EPOCH><BSTAR>.13041523E-2</BSTAR><MEAN_MOTION_DOT>.4578E-3</MEAN_MOTION_DOT><MEAN_MOTION_DDOT>0</MEAN_MOTION_DDOT></tleParameters></data></segment></body></omm>
<omm id="CCSDS_OMM_VERS" version="2.0">
<header><CREATION_DATE/><ORIGINATOR/></header><body><segment><metadata><OBJECT_NAME>KUIPER-00138</OBJECT_NAME><OBJECT_ID>2025-228T</OBJECT_ID><CENTER_NAME>EARTH</CENTER_NAME><REF_FRAME>TEME</REF_FRAME><TIME_SYSTEM>UTC</TIME_SYSTEM><MEAN_ELEMENT_THEORY>SGP4</MEAN_ELEMENT_THEORY></metadata><data><meanElements><EPOCH>2025-12-07T21:52:07.527936</EPOCH><MEAN_MOTION>15.35616264</MEAN_MOTION><ECCENTRICITY>.00078442</ECCENTRICITY><INCLINATION>51.8788</INCLINATION><RA_OF_ASC_NODE>43.9360</RA_OF_ASC_NODE><ARG_OF_PERICENTER>9.3807</ARG_OF_PERICENTER><MEAN_ANOMALY>350.7324</MEAN_ANOMALY></meanElements><tleParameters><EPHEMERIS_TYPE>0</EPHEMERIS_TYPE><CLASSIFICATION_TYPE>U</CLASSIFICATION_TYPE><NORAD_CAT_ID>65964</NORAD_CAT_ID><ELEMENT_SET_NO>999</ELEMENT_SET_NO><REV_AT_EPOCH>967</REV_AT_EPOCH><BSTAR>.12403459E-2</BSTAR><MEAN_MOTION_DOT>.43513E-3</MEAN_MOTION_DOT><MEAN_MOTION_DDOT>0</MEAN_MOTION_DDOT></tleParameters></data></segment></body></omm>
<omm id="CCSDS_OMM_VERS" version="2.0">
<header><CREATION_DATE/><ORIGINATOR/></header><body><segment><metadata><OBJECT_NAME>KUIPER-00140</OBJECT_NAME><OBJECT_ID>2025-228U</OBJECT_ID><CENTER_NAME>EARTH</CENTER_NAME><REF_FRAME>TEME</REF_FRAME><TIME_SYSTEM>UTC</TIME_SYSTEM><MEAN_ELEMENT_THEORY>SGP4</MEAN_ELEMENT_THEORY></metadata><data><meanElements><EPOCH>2025-12-08T04:17:08.612160</EPOCH><MEAN_MOTION>15.35016354</MEAN_MOTION><ECCENTRICITY>.00071026</ECCENTRICITY><INCLINATION>51.8768</INCLINATION><RA_OF_ASC_NODE>42.7302</RA_OF_ASC_NODE><ARG_OF_PERICENTER>12.8107</ARG_OF_PERICENTER><MEAN_ANOMALY>347.3058</MEAN_ANOMALY></meanElements><tleParameters><EPHEMERIS_TYPE>0</EPHEMERIS_TYPE><CLASSIFICATION_TYPE>U</CLASSIFICATION_TYPE><NORAD_CAT_ID>65965</NORAD_CAT_ID><ELEMENT_SET_NO>999</ELEMENT_SET_NO><REV_AT_EPOCH>971</REV_AT_EPOCH><BSTAR>.13202992E-2</BSTAR><MEAN_MOTION_DOT>.45461E-3</MEAN_MOTION_DOT><MEAN_MOTION_DDOT>0</MEAN_MOTION_DDOT></tleParameters></data></segment></body></omm>
<omm id="CCSDS_OMM_VERS" version="2.0">
<header><CREATION_DATE/><ORIGINATOR/></header><body><segment><metadata><OBJECT_NAME>KUIPER-00141</OBJECT_NAME><OBJECT_ID>2025-228V</OBJECT_ID><CENTER_NAME>EARTH</CENTER_NAME><REF_FRAME>TEME</REF_FRAME><TIME_SYSTEM>UTC</TIME_SYSTEM><MEAN_ELEMENT_THEORY>SGP4</MEAN_ELEMENT_THEORY></metadata><data><meanElements><EPOCH>2025-12-08T05:16:27.069600</EPOCH><MEAN_MOTION>15.36175946</MEAN_MOTION><ECCENTRICITY>.00058845</ECCENTRICITY><INCLINATION>51.8764</INCLINATION><RA_OF_ASC_NODE>42.2574</RA_OF_ASC_NODE><ARG_OF_PERICENTER>358.1759</ARG_OF_PERICENTER><MEAN_ANOMALY>1.9205</MEAN_ANOMALY></meanElements><tleParameters><EPHEMERIS_TYPE>0</EPHEMERIS_TYPE><CLASSIFICATION_TYPE>U</CLASSIFICATION_TYPE><NORAD_CAT_ID>65966</NORAD_CAT_ID><ELEMENT_SET_NO>999</ELEMENT_SET_NO><REV_AT_EPOCH>972</REV_AT_EPOCH><BSTAR>.13675821E-2</BSTAR><MEAN_MOTION_DOT>.48906E-3</MEAN_MOTION_DOT><MEAN_MOTION_DDOT>0</MEAN_MOTION_DDOT></tleParameters></data></segment></body></omm>
<omm id="CCSDS_OMM_VERS" version="2.0">
<header><CREATION_DATE/><ORIGINATOR/></header><body><segment><metadata><OBJECT_NAME>KUIPER-00146</OBJECT_NAME><OBJECT_ID>2025-228W</OBJECT_ID><CENTER_NAME>EARTH</CENTER_NAME><REF_FRAME>TEME</REF_FRAME><TIME_SYSTEM>UTC</TIME_SYSTEM><MEAN_ELEMENT_THEORY>SGP4</MEAN_ELEMENT_THEORY></metadata><data><meanElements><EPOCH>2025-12-08T03:55:49.736640</EPOCH><MEAN_MOTION>15.35786831</MEAN_MOTION><ECCENTRICITY>.00069068</ECCENTRICITY><INCLINATION>51.8809</INCLINATION><RA_OF_ASC_NODE>42.6399</RA_OF_ASC_NODE><ARG_OF_PERICENTER>2.3605</ARG_OF_PERICENTER><MEAN_ANOMALY>357.7413</MEAN_ANOMALY></meanElements><tleParameters><EPHEMERIS_TYPE>0</EPHEMERIS_TYPE><CLASSIFICATION_TYPE>U</CLASSIFICATION_TYPE><NORAD_CAT_ID>65967</NORAD_CAT_ID><ELEMENT_SET_NO>999</ELEMENT_SET_NO><REV_AT_EPOCH>971</REV_AT_EPOCH><BSTAR>.12198389E-2</BSTAR><MEAN_MOTION_DOT>.43011E-3</MEAN_MOTION_DOT><MEAN_MOTION_DDOT>0</MEAN_MOTION_DDOT></tleParameters></data></segment></body></omm>
<omm id="CCSDS_OMM_VERS" version="2.0">
<header><CREATION_DATE/><ORIGINATOR/></header><body><segment><metadata><OBJECT_NAME>KUIPER-00149</OBJECT_NAME><OBJECT_ID>2025-228X</OBJECT_ID><CENTER_NAME>EARTH</CENTER_NAME><REF_FRAME>TEME</REF_FRAME><TIME_SYSTEM>UTC</TIME_SYSTEM><MEAN_ELEMENT_THEORY>SGP4</MEAN_ELEMENT_THEORY></metadata><data><meanElements><EPOCH>2025-12-07T21:22:31.690848</EPOCH><MEAN_MOTION>15.35939359</MEAN_MOTION><ECCENTRICITY>.00051711</ECCENTRICITY><INCLINATION>51.8781</INCLINATION><RA_OF_ASC_NODE>43.8060</RA_OF_ASC_NODE><ARG_OF_PERICENTER>353.9139</ARG_OF_PERICENTER><MEAN_ANOMALY>6.1783</MEAN_ANOMALY></meanElements><tleParameters><EPHEMERIS_TYPE>0</EPHEMERIS_TYPE><CLASSIFICATION_TYPE>U</CLASSIFICATION_TYPE><NORAD_CAT_ID>65968</NORAD_CAT_ID><ELEMENT_SET_NO>999</ELEMENT_SET_NO><REV_AT_EPOCH>967</REV_AT_EPOCH><BSTAR>.62157941E-3</BSTAR><MEAN_MOTION_DOT>.21766E-3</MEAN_MOTION_DOT><MEAN_MOTION_DDOT>0</MEAN_MOTION_DDOT></tleParameters></data></segment></body></omm>
<omm id="CCSDS_OMM_VERS" version="2.0">
<header><CREATION_DATE/><ORIGINATOR/></header><body><segment><metadata><OBJECT_NAME>KUIPER-00154</OBJECT_NAME><OBJECT_ID>2025-228Y</OBJECT_ID><CENTER_NAME>EARTH</CENTER_NAME><REF_FRAME>TEME</REF_FRAME><TIME_SYSTEM>UTC</TIME_SYSTEM><MEAN_ELEMENT_THEORY>SGP4</MEAN_ELEMENT_THEORY></metadata><data><meanElements><EPOCH>2025-12-07T21:28:34.773024</EPOCH><MEAN_MOTION>15.35748449</MEAN_MOTION><ECCENTRICITY>.00060064</ECCENTRICITY><INCLINATION>51.8798</INCLINATION><RA_OF_ASC_NODE>43.8321</RA_OF_ASC_NODE><ARG_OF_PERICENTER>351.1727</ARG_OF_PERICENTER><MEAN_ANOMALY>8.9153</MEAN_ANOMALY></meanElements><tleParameters><EPHEMERIS_TYPE>0</EPHEMERIS_TYPE><CLASSIFICATION_TYPE>U</CLASSIFICATION_TYPE><NORAD_CAT_ID>65969</NORAD_CAT_ID><ELEMENT_SET_NO>999</ELEMENT_SET_NO><REV_AT_EPOCH>967</REV_AT_EPOCH><BSTAR>.21169953E-2</BSTAR><MEAN_MOTION_DOT>.75142E-3</MEAN_MOTION_DOT><MEAN_MOTION_DDOT>0</MEAN_MOTION_DDOT></tleParameters></data></segment></body></omm>

</ndm>
