KUIPER-00136            
1 65962U 25228R   25342.25003472  .00010339  00000+0  32670-3 0  9992
2 65962  51.8816  42.1248 0005620 351.7825 165.5025 15.33374406  4592
KUIPER-00137            
1 65963U 25228S   25341.45172518  .00045780  00000+0  13042-2 0  9991
2 65963  51.8819  46.1163 0006417   8.8765 351.2333 15.35622257  9609
KUIPER-00138            
1 65964U 25228T   25341.91119824  .00043513  00000+0  12403-2 0  9996
2 65964  51.8788  43.9360 0007844   9.3807 350.7324 15.35616264  9679
KUIPER-00140            
1 65965U 25228U   25342.17857190  .00045461  00000+0  13203-2 0  9994
2 65965  51.8768  42.7302 0007102  12.8107 347.3058 15.35016354  9715
KUIPER-00141            
1 65966U 25228V   25342.21975775  .00048906  00000+0  13676-2 0  9991
2 65966  51.8764  42.2574 0005884 358.1759   1.9205 15.36175946  9724
KUIPER-00146            
1 65967U 25228W   25342.16377010  .00043011  00000+0  12198-2 0  9994
2 65967  51.8809  42.6399 0006906   2.3605 357.7413 15.35786831  9710
KUIPER-00149            
1 65968U 25228X   25341.89064457  .00021766  00000+0  62158-3 0  9997
2 65968  51.8781  43.8060 0005171 353.9139   6.1783 15.35939359  9673
KUIPER-00154            
1 65969U 25228Y   25341.89484691  .00075142  00000+0  21170-2 0  9999
2 65969  51.8798  43.8321 0006006 351.1727   8.9153 15.35748449  9672
